{"type": "FeatureCollection", "features": [ {"type": "Feature", "properties": {"norad_id": 67000, "name": "2025-292H", "group": "last-30-days", "lat": -25.73867206403557, "lon": -113.77194100475413, "alt_km": 548.8185768942822, "timestamp": "2025-12-23T11:34:46.948764+00:00", "meta": {"OBJECT_NAME": "2025-292H", "OBJECT_ID": "2025-292H", "EPOCH": "2025-12-23T02:41:18.050208", "MEAN_MOTION": 15.05014659, "ECCENTRICITY": 0.0014556, "INCLINATION": 97.6562, "RA_OF_ASC_NODE": 69.5791, "ARG_OF_PERICENTER": 241.4286, "MEAN_ANOMALY": 118.5475, "EPHEMERIS_TYPE": 0, "CLASSIFICATION_TYPE": "U", "NORAD_CAT_ID": 67000, "ELEMENT_SET_NO": 999, "REV_AT_EPOCH": 182, "BSTAR": 0.00052917, "MEAN_MOTION_DOT": 7.47e-05, "MEAN_MOTION_DDOT": 0}, "tle": {"line1": "1 67000U 25292H   25357.11201447  .00007470  00000+0  52917-3 0  9999", "line2": "2 67000  97.6562  69.5791 0014556 241.4286 118.5475 15.05014659  1823"}}, "geometry": {"type": "Point", "coordinates": [-113.77194100475413, -25.73867206403557]}}, {"type": "Feature", "properties": {"norad_id": 67001, "name": "2025-292J", "group": "last-30-days", "lat": 2.4414404865611155, "lon": -109.74035334020975, "alt_km": 549.7296249088213, "timestamp": "2025-12-23T11:34:46.948773+00:00", "meta": {"OBJECT_NAME": "2025-292J", "OBJECT_ID": "2025-292J", "EPOCH": "2025-12-23T02:48:39.034080", "MEAN_MOTION": 15.04407257, "ECCENTRICITY": 0.0014743, "INCLINATION": 97.6543, "RA_OF_ASC_NODE": 69.5693, "ARG_OF_PERICENTER": 230.5207, "MEAN_ANOMALY": 129.4716, "EPHEMERIS_TYPE": 0, "CLASSIFICATION_TYPE": "U", "NORAD_CAT_ID": 67001, "ELEMENT_SET_NO": 999, "REV_AT_EPOCH": 195, "BSTAR": 0.00041777, "MEAN_MOTION_DOT": 5.788e-05, "MEAN_MOTION_DDOT": 0}, "tle": {"line1": "1 67001U 25292J   25357.11711845  .00005788  00000+0  41777-3 0  9990", "line2": "2 67001  97.6543  69.5693 0014743 230.5207 129.4716 15.04407257  1956"}}, "geometry": {"type": "Point", "coordinates": [-109.74035334020975, 2.4414404865611155]}}, {"type": "Feature", "properties": {"norad_id": 67002, "name": "ZK-1A R/B", "group": "last-30-days", "lat": 58.66784345634407, "lon": -95.9783787060927, "alt_km": 513.8133842514599, "timestamp": "2025-12-23T11:34:46.948782+00:00", "meta": {"OBJECT_NAME": "ZK-1A R/B", "OBJECT_ID": "2025-292K", "EPOCH": "2025-12-22T04:13:50.836512", "MEAN_MOTION": 15.57537546, "ECCENTRICITY": 0.02092931, "INCLINATION": 97.7207, "RA_OF_ASC_NODE": 69.7284, "ARG_OF_PERICENTER": 331.1889, "MEAN_ANOMALY": 27.7932, "EPHEMERIS_TYPE": 0, "CLASSIFICATION_TYPE": "U", "NORAD_CAT_ID": 67002, "ELEMENT_SET_NO": 999, "REV_AT_EPOCH": 186, "BSTAR": 0.00083309212, "MEAN_MOTION_DOT": 0.00176431, "MEAN_MOTION_DDOT": 1.0433725e-05}, "tle": {"line1": "1 67002U 25292K   25356.17628283  .00176431  10434-4  83309-3 0  9997", "line2": "2 67002  97.7207  69.7284 0209293 331.1889  27.7932 15.57537546  1866"}}, "geometry": {"type": "Point", "coordinates": [-95.9783787060927, 58.66784345634407]}}, {"type": "Feature", "properties": {"norad_id": 67003, "name": "STARLINK-35660", "group": "last-30-days", "lat": -32.507454015704205, "lon": -80.77932727959858, "alt_km": 323.2626459302437, "timestamp": "2025-12-23T11:34:46.948791+00:00", "meta": {"OBJECT_NAME": "STARLINK-35660", "OBJECT_ID": "2025-293A", "EPOCH": "2025-12-23T04:00:01.998720", "MEAN_MOTION": 15.8514552, "ECCENTRICITY": 0.0003743, "INCLINATION": 69.9939, "RA_OF_ASC_NODE": 293.5537, "ARG_OF_PERICENTER": 272.8249, "MEAN_ANOMALY": 51.4579, "EPHEMERIS_TYPE": 0, "CLASSIFICATION_TYPE": "U", "NORAD_CAT_ID": 67003, "ELEMENT_SET_NO": 999, "REV_AT_EPOCH": 185, "BSTAR": -0.0078442, "MEAN_MOTION_DOT": -0.01626095, "MEAN_MOTION_DDOT": 0}, "tle": {"line1": "1 67003U 25293A   25357.16668980 -.01626095  00000+0 -78442-2 0  9990", "line2": "2 67003  69.9939 293.5537 0003743 272.8249  51.4579 15.85145520  1859"}}, "geometry": {"type": "Point", "coordinates": [-80.77932727959858, -32.507454015704205]}}, {"type": "Feature", "properties": {"norad_id": 67004, "name": "STARLINK-35913", "group": "last-30-days", "lat": -30.4568470204181, "lon": -79.72784651361262, "alt_km": 323.4653164426345, "timestamp": "2025-12-23T11:34:46.948802+00:00", "meta": {"OBJECT_NAME": "STARLINK-35913", "OBJECT_ID": "2025-293B", "EPOCH": "2025-12-23T04:00:01.998720", "MEAN_MOTION": 15.8512915, "ECCENTRICITY": 0.0003655, "INCLINATION": 69.994, "RA_OF_ASC_NODE": 293.5509, "ARG_OF_PERICENTER": 267.7502, "MEAN_ANOMALY": 58.7868, "EPHEMERIS_TYPE": 0, "CLASSIFICATION_TYPE": "U", "NORAD_CAT_ID": 67004, "ELEMENT_SET_NO": 999, "REV_AT_EPOCH": 185, "BSTAR": -0.0078056, "MEAN_MOTION_DOT": -0.01617882, "MEAN_MOTION_DDOT": 0}, "tle": {"line1": "1 67004U 25293B   25357.16668980 -.01617882  00000+0 -78056-2 0  9996", "line2": "2 67004  69.9940 293.5509 0003655 267.7502  58.7868 15.85129150  1850"}}, "geometry": {"type": "Point", "coordinates": [-79.72784651361262, -30.4568470204181]}}, {"type": "Feature", "properties": {"norad_id": 67005, "name": "STARLINK-36148", "group": "last-30-days", "lat": -28.290248500651757, "lon": -78.66748628716957, "alt_km": 323.37656849438827, "timestamp": "2025-12-23T11:34:46.948813+00:00", "meta": {"OBJECT_NAME": "STARLINK-36148", "OBJECT_ID": "2025-293C", "EPOCH": "2025-12-23T04:00:01.998720", "MEAN_MOTION": 15.85116302, "ECCENTRICITY": 0.0003752, "INCLINATION": 69.9944, "RA_OF_ASC_NODE": 293.5486, "ARG_OF_PERICENTER": 268.851, "MEAN_ANOMALY": 60.0589, "EPHEMERIS_TYPE": 0, "CLASSIFICATION_TYPE": "U", "NORAD_CAT_ID": 67005, "ELEMENT_SET_NO": 999, "REV_AT_EPOCH": 185, "BSTAR": -0.0078245, "MEAN_MOTION_DOT": -0.01620526, "MEAN_MOTION_DDOT": 0}, "tle": {"line1": "1 67005U 25293C   25357.16668980 -.01620526  00000+0 -78245-2 0  9996", "line2": "2 67005  69.9944 293.5486 0003752 268.8510  60.0589 15.85116302  1859"}}, "geometry": {"type": "Point", "coordinates": [-78.66748628716957, -28.290248500651757]}}, {"type": "Feature", "properties": {"norad_id": 67006, "name": "STARLINK-36156", "group": "last-30-days", "lat": -23.26641632454954, "lon": -76.37891620439129, "alt_km": 323.2764786924863, "timestamp": "2025-12-23T11:34:46.948821+00:00", "meta": {"OBJECT_NAME": "STARLINK-36156", "OBJECT_ID": "2025-293D", "EPOCH": "2025-12-23T04:00:01.998720", "MEAN_MOTION": 15.85111828, "ECCENTRICITY": 0.0003881, "INCLINATION": 69.9939, "RA_OF_ASC_NODE": 293.5414, "ARG_OF_PERICENTER": 271.072, "MEAN_ANOMALY": 63.3134, "EPHEMERIS_TYPE": 0, "CLASSIFICATION_TYPE": "U", "NORAD_CAT_ID": 67006, "ELEMENT_SET_NO": 999, "REV_AT_EPOCH": 185, "BSTAR": -0.0082663, "MEAN_MOTION_DOT": -0.01699711, "MEAN_MOTION_DDOT": 0}, "tle": {"line1": "1 67006U 25293D   25357.16668980 -.01699711  00000+0 -82663-2 0  9998", "line2": "2 67006  69.9939 293.5414 0003881 271.0720  63.3134 15.85111828  1857"}}, "geometry": {"type": "Point", "coordinates": [-76.37891620439129, -23.26641632454954]}}, {"type": "Feature", "properties": {"norad_id": 67007, "name": "STARLINK-36123", "group": "last-30-days", "lat": -25.585130979870012, "lon": -77.40959605780353, "alt_km": 323.3291359026389, "timestamp": "2025-12-23T11:34:46.948830+00:00", "meta": {"OBJECT_NAME": "STARLINK-36123", "OBJECT_ID": "2025-293E", "EPOCH": "2025-12-23T04:00:01.998720", "MEAN_MOTION": 15.85088075, "ECCENTRICITY": 0.0003925, "INCLINATION": 69.9938, "RA_OF_ASC_NODE": 293.5444, "ARG_OF_PERICENTER": 268.9213, "MEAN_ANOMALY": 62.9518, "EPHEMERIS_TYPE": 0, "CLASSIFICATION_TYPE": "U", "NORAD_CAT_ID": 67007, "ELEMENT_SET_NO": 999, "REV_AT_EPOCH": 185, "BSTAR": -0.0078544, "MEAN_MOTION_DOT": -0.01624206, "MEAN_MOTION_DDOT": 0}, "tle": {"line1": "1 67007U 25293E   25357.16668980 -.01624206  00000+0 -78544-2 0  9999", "line2": "2 67007  69.9938 293.5444 0003925 268.9213  62.9518 15.85088075  1859"}}, "geometry": {"type": "Point", "coordinates": [-77.40959605780353, -25.585130979870012]}}, {"type": "Feature", "properties": {"norad_id": 67008, "name": "STARLINK-36163", "group": "last-30-days", "lat": -20.3570699589354, "lon": -75.13879675441602, "alt_km": 323.1016294898409, "timestamp": "2025-12-23T11:34:46.948839+00:00", "meta": {"OBJECT_NAME": "STARLINK-36163", "OBJECT_ID": "2025-293F", "EPOCH": "2025-12-23T04:00:01.998720", "MEAN_MOTION": 15.85033756, "ECCENTRICITY": 0.0003992, "INCLINATION": 69.9941, "RA_OF_ASC_NODE": 293.5378, "ARG_OF_PERICENTER": 273.2047, "MEAN_ANOMALY": 64.3678, "EPHEMERIS_TYPE": 0, "CLASSIFICATION_TYPE": "U", "NORAD_CAT_ID": 67008, "ELEMENT_SET_NO": 999, "REV_AT_EPOCH": 185, "BSTAR": -0.0079015, "MEAN_MOTION_DOT": -0.01629022, "MEAN_MOTION_DDOT": 0}, "tle": {"line1": "1 67008U 25293F   25357.16668980 -.01629022  00000+0 -79015-2 0  9995", "line2": "2 67008  69.9941 293.5378 0003992 273.2047  64.3678 15.85033756  1857"}}, "geometry": {"type": "Point", "coordinates": [-75.13879675441602, -20.3570699589354]}}, {"type": "Feature", "properties": {"norad_id": 67009, "name": "STARLINK-36118", "group": "last-30-days", "lat": -17.88810008397506, "lon": -74.1258860260915, "alt_km": 323.03418474745195, "timestamp": "2025-12-23T11:34:46.948848+00:00", "meta": {"OBJECT_NAME": "STARLINK-36118", "OBJECT_ID": "2025-293G", "EPOCH": "2025-12-23T04:00:01.998720", "MEAN_MOTION": 15.85009861, "ECCENTRICITY": 0.0003955, "INCLINATION": 69.9938, "RA_OF_ASC_NODE": 293.5347, "ARG_OF_PERICENTER": 274.0829, "MEAN_ANOMALY": 66.1676, "EPHEMERIS_TYPE": 0, "CLASSIFICATION_TYPE": "U", "NORAD_CAT_ID": 67009, "ELEMENT_SET_NO": 999, "REV_AT_EPOCH": 179, "BSTAR": -0.007917, "MEAN_MOTION_DOT": -0.01630127, "MEAN_MOTION_DDOT": 0}, "tle": {"line1": "1 67009U 25293G   25357.16668980 -.01630127  00000+0 -79170-2 0  9996", "line2": "2 67009  69.9938 293.5347 0003955 274.0829  66.1676 15.85009861  1797"}}, "geometry": {"type": "Point", "coordinates": [-74.1258860260915, -17.88810008397506]}}]}